[{"OBJECT_NAME":"QIANFAN-80","OBJECT_ID":"2025-046H","EPOCH":"2026-03-09T21:44:23.947008","MEAN_MOTION":13.50999558,"ECCENTRICITY":0.00119514,"INCLINATION":88.9752,"RA_OF_ASC_NODE":310.8022,"ARG_OF_PERICENTER":238.4861,"MEAN_ANOMALY":121.5124,"EPHEMERIS_TYPE":0,"CLASSIFICATION_TYPE":"U","NORAD_CAT_ID":63166,"ELEMENT_SET_NO":999,"REV_AT_EPOCH":5930,"BSTAR":0.00020039103,"MEAN_MOTION_DOT":1.41e-6,"MEAN_MOTION_DDOT":0},{"OBJECT_NAME":"THORAD AGENA D DEB","OBJECT_ID":"1970-025NQ","EPOCH":"2026-03-09T22:09:19.832544","MEAN_MOTION":13.52021521,"ECCENTRICITY":5.367e-5,"INCLINATION":100.1555,"RA_OF_ASC_NODE":42.695,"ARG_OF_PERICENTER":212.3937,"MEAN_ANOMALY":213.0122,"EPHEMERIS_TYPE":0,"CLASSIFICATION_TYPE":"U","NORAD_CAT_ID":10136,"ELEMENT_SET_NO":999,"REV_AT_EPOCH":75708,"BSTAR":0.00016987205,"MEAN_MOTION_DOT":6.4e-7,"MEAN_MOTION_DDOT":0}]
